{"type":"FeatureCollection", "features": [
{"type":"Feature","geometry":{"type":"Polygon","coordinates":[[[92.896,24.391],[93.009,24.413],[92.976,24.116],[93.207,24.047],[93.253,24.021],[93.396,23.926],[93.427,23.65],[93.39,23.497],[93.358,23.331],[93.392,23.221],[93.3,23.005],[93.196,23.056],[93.123,23.006],[93.097,22.786],[93.188,22.425],[93.161,22.18],[92.999,22.054],[92.855,22.063],[92.606,22.124],[92.509,22.741],[92.372,22.936],[92.402,23.266],[92.265,23.727],[92.324,23.914],[92.295,24.245],[92.422,24.25],[92.532,24.178],[92.762,24.513],[92.896,24.391]]]},"properties":{"state":"Mizoram"}},
{"type":"Feature","geometry":{"type":"Polygon","coordinates":[[[79.284,13.123],[79.534,13.276],[79.946,13.364],[80.037,13.538],[80.268,13.565],[80.345,13.276],[80.3,13.142],[80.25,12.858],[80.138,12.411],[80.008,12.254],[79.84,11.956],[79.686,11.88],[79.808,11.845],[79.761,11.623],[79.813,11.424],[79.851,10.985],[79.748,10.996],[79.724,10.929],[79.849,10.827],[79.872,10.36],[79.768,10.272],[79.472,10.316],[79.267,10.229],[79.227,10.137],[79.251,10.051],[79.117,9.85],[78.981,9.689],[78.9,9.469],[79.065,9.299],[78.579,9.131],[78.384,9.094],[78.172,8.883],[78.143,8.501],[77.97,8.335],[77.794,8.163],[77.589,8.14],[77.445,8.094],[77.098,8.292],[77.27,8.578],[77.199,8.771],[77.256,8.879],[77.204,9.07],[77.282,9.299],[77.34,9.42],[77.403,9.526],[77.167,9.612],[77.268,10.122],[77.288,10.232],[77.091,10.315],[77.051,10.262],[76.892,10.26],[76.834,10.339],[76.838,10.596],[76.907,10.782],[76.656,10.939],[76.754,11.079],[76.707,11.24],[76.442,11.201],[76.548,11.359],[76.234,11.527],[76.418,11.671],[76.848,11.595],[76.909,11.795],[77.293,11.809],[77.429,11.768],[77.494,11.944],[77.676,11.952],[77.747,12.155],[77.471,12.243],[77.615,12.367],[77.601,12.668],[77.739,12.672],[77.831,12.866],[77.866,12.87],[78.057,12.852],[78.231,12.76],[78.412,12.627],[78.603,12.844],[78.621,12.991],[78.892,13.096],[79.163,13.02],[79.228,13.158],[79.284,13.123]]]},"properties":{"state":"Tamil Nadu"}},
{"type":"Feature","geometry":{"type":"Polygon","coordinates":[[[76.782,21.559],[76.662,21.281],[76.383,21.076],[76.167,21.079],[76.159,21.255],[75.987,21.369],[75.609,21.39],[75.211,21.412],[75.052,21.567],[74.775,21.615],[74.505,21.726],[74.525,21.912],[74.433,22.03],[74.282,21.934],[74.147,21.951],[74.095,22.017],[74.19,22.32],[74.058,22.55],[74.379,22.635],[74.465,22.817],[74.32,23.06],[74.506,23.085],[74.734,23.221],[74.529,23.321],[74.572,23.42],[74.772,23.543],[74.941,23.765],[74.974,24.04],[74.908,24.212],[74.754,24.242],[74.855,24.424],[74.697,24.483],[74.993,24.693],[74.959,24.858],[75.116,24.877],[75.191,25.037],[75.352,25.019],[75.184,24.748],[75.549,24.703],[75.785,24.762],[75.921,24.543],[75.728,24.396],[75.837,24.057],[75.702,23.966],[75.522,24.025],[75.462,23.918],[75.69,23.747],[75.938,23.897],[76.118,24.194],[76.213,24.209],[76.321,24.245],[76.881,24.131],[76.922,24.212],[76.844,24.436],[77.069,24.557],[76.877,25.041],[77.312,25.081],[77.412,25.224],[77.367,25.411],[77.083,25.337],[76.945,25.284],[76.594,25.408],[76.516,25.528],[76.546,25.838],[76.788,25.944],[76.852,26.032],[77.12,26.214],[77.375,26.365],[77.539,26.412],[77.904,26.659],[78.089,26.676],[78.222,26.832],[78.358,26.869],[78.545,26.764],[78.78,26.769],[79.007,26.671],[79.135,26.44],[78.994,26.197],[78.938,25.952],[78.886,25.913],[78.658,25.559],[78.452,25.572],[78.345,25.328],[78.39,25.206],[78.447,25.122],[78.374,25.099],[78.19,24.842],[78.276,24.663],[78.268,24.45],[78.369,24.374],[78.586,24.354],[78.806,24.179],[78.991,24.417],[78.985,24.442],[78.77,24.86],[78.632,24.957],[78.64,25.071],[78.559,25.213],[78.513,25.276],[78.731,25.458],[78.961,25.345],[78.88,25.158],[79.063,25.222],[79.131,25.11],[79.323,25.15],[79.28,25.324],[79.673,25.121],[80.105,25.35],[80.311,25.286],[80.43,25.174],[80.264,25.024],[80.478,24.976],[80.592,25.09],[80.715,25.066],[80.845,25.187],[80.946,24.967],[81.12,24.904],[81.264,25.053],[81.541,25.188],[81.668,25.062],[81.892,24.989],[81.943,24.846],[82.094,24.817],[82.216,24.794],[82.298,24.607],[82.524,24.677],[82.671,24.697],[82.798,24.576],[82.744,24.165],[82.813,23.962],[82.694,23.919],[82.498,23.784],[82.209,23.853],[81.921,23.871],[81.81,23.808],[81.603,23.885],[81.697,23.721],[81.611,23.512],[81.917,23.534],[81.986,23.415],[82.2,23.314],[82.123,23.104],[81.95,22.983],[81.732,22.676],[81.729,22.67],[81.622,22.538],[81.475,22.489],[81.193,22.491],[81.045,22.241],[80.908,22.11],[80.846,21.835],[80.715,21.662],[80.738,21.473],[80.661,21.333],[80.423,21.441],[80.268,21.618],[79.918,21.524],[79.739,21.603],[79.539,21.541],[79.51,21.596],[79.496,21.674],[79.235,21.718],[79.224,21.648],[78.916,21.59],[78.9,21.501],[78.433,21.497],[78.343,21.589],[78.03,21.421],[77.488,21.375],[77.575,21.527],[77.479,21.77],[77.062,21.713],[76.782,21.559]]]},"properties":{"state":"Madhya Pradesh"}},
{"type":"Feature","geometry":{"type":"Polygon","coordinates":[[[80.661,21.333],[80.464,21.175],[80.464,20.929],[80.562,20.823],[80.626,20.332],[80.395,20.244],[80.545,20.1],[80.469,19.827],[80.672,19.703],[80.895,19.52],[80.852,19.365],[80.752,19.288],[80.482,19.337],[80.271,18.943],[80.349,18.848],[80.276,18.72],[80.118,18.68],[79.914,18.826],[79.929,19.158],[79.978,19.399],[79.806,19.579],[79.744,19.609],[79.472,19.501],[79.253,19.593],[78.936,19.55],[78.842,19.762],[78.432,19.814],[78.306,19.912],[78.276,19.692],[78.309,19.481],[78.193,19.317],[77.863,19.304],[77.797,19.073],[77.843,18.908],[77.949,18.844],[77.84,18.805],[77.739,18.556],[77.597,18.549],[77.551,18.292],[77.265,18.423],[77.065,18.151],[76.951,18.188],[76.919,17.916],[76.74,17.899],[76.685,17.682],[76.523,17.76],[76.429,17.643],[76.332,17.597],[76.383,17.315],[76.075,17.337],[75.932,17.323],[75.633,17.477],[75.604,17.305],[75.665,16.979],[75.341,16.956],[75.182,16.843],[75.089,16.952],[74.696,16.715],[74.315,16.555],[74.317,16.326],[74.48,16.249],[74.464,16.039],[74.346,15.764],[74.21,15.781],[74.118,15.651],[73.939,15.742],[73.685,15.728],[73.511,15.937],[73.347,16.53],[73.277,16.891],[73.289,17.116],[73.184,17.385],[73.177,17.583],[73.044,17.982],[72.895,18.463],[72.934,18.541],[72.836,18.864],[72.784,19.264],[72.798,19.304],[72.654,19.836],[72.775,20.132],[72.962,20.209],[73.211,20.121],[73.249,20.122],[73.416,20.205],[73.468,20.496],[73.407,20.624],[73.474,20.72],[73.745,20.565],[73.838,20.621],[73.942,20.84],[73.889,20.933],[73.849,20.998],[73.849,20.999],[73.807,21.009],[73.815,21.174],[74.046,21.446],[73.982,21.522],[73.835,21.52],[73.939,21.874],[74.147,21.951],[74.282,21.934],[74.433,22.03],[74.525,21.912],[74.505,21.726],[74.775,21.615],[75.052,21.567],[75.211,21.412],[75.609,21.39],[75.987,21.369],[76.159,21.255],[76.167,21.079],[76.383,21.076],[76.662,21.281],[76.782,21.559],[77.062,21.713],[77.479,21.77],[77.575,21.527],[77.488,21.375],[78.03,21.421],[78.343,21.589],[78.433,21.497],[78.9,21.501],[78.916,21.59],[79.224,21.648],[79.235,21.718],[79.496,21.674],[79.51,21.596],[79.539,21.541],[79.739,21.603],[79.918,21.524],[80.268,21.618],[80.423,21.441],[80.661,21.333]]]},"properties":{"state":"Maharashtra"}},
{"type":"Feature","geometry":{"type":"Polygon","coordinates":[[[83.269,21.377],[83.192,21.139],[82.966,21.175],[82.64,21.155],[82.639,21.089],[82.46,20.826],[82.339,20.874],[82.438,20.434],[82.398,20.056],[82.718,19.989],[82.594,19.776],[82.446,19.91],[82.018,20.049],[81.875,20.052],[81.869,19.902],[82.065,19.791],[82.028,19.508],[82.189,19.428],[82.206,19.121],[82.246,18.919],[82.091,18.738],[81.9,18.661],[81.911,18.57],[81.53,18.24],[81.482,17.977],[81.397,17.818],[81.166,17.858],[81.085,17.797],[81.016,17.795],[80.979,18.166],[80.756,18.17],[80.706,18.439],[80.455,18.631],[80.372,18.611],[80.276,18.72],[80.349,18.848],[80.271,18.943],[80.482,19.337],[80.752,19.288],[80.852,19.365],[80.895,19.52],[80.672,19.703],[80.469,19.827],[80.545,20.1],[80.395,20.244],[80.626,20.332],[80.562,20.823],[80.464,20.929],[80.464,21.175],[80.661,21.333],[80.738,21.473],[80.715,21.662],[80.846,21.835],[80.908,22.11],[81.045,22.241],[81.193,22.491],[81.475,22.489],[81.622,22.538],[81.729,22.67],[81.732,22.676],[81.95,22.983],[82.123,23.104],[82.2,23.314],[81.986,23.415],[81.917,23.534],[81.611,23.512],[81.697,23.721],[81.603,23.885],[81.81,23.808],[81.921,23.871],[82.209,23.853],[82.498,23.784],[82.694,23.919],[82.813,23.962],[82.947,23.871],[83.207,23.922],[83.33,24.102],[83.432,24.086],[83.571,23.863],[83.706,23.82],[83.775,23.61],[84.016,23.635],[83.963,23.386],[84.074,23.334],[84.038,23.171],[84.178,22.98],[84.374,22.979],[84.293,22.773],[84.012,22.528],[84.01,22.371],[83.802,22.294],[83.628,22.203],[83.538,22.045],[83.591,21.825],[83.487,21.644],[83.383,21.621],[83.269,21.377]]]},"properties":{"state":"Chhattisgarh"}},
{"type":"Feature","geometry":{"type":"Polygon","coordinates":[[[72.775,20.132],[72.829,20.368],[72.887,20.462],[72.855,20.75],[72.751,21.062],[72.621,21.1],[72.654,21.346],[72.736,21.475],[72.543,21.733],[72.509,21.944],[72.567,22.181],[72.867,22.214],[72.947,22.293],[72.659,22.279],[72.376,22.315],[72.245,21.995],[72.194,21.75],[72.309,21.625],[72.109,21.302],[72.113,21.199],[71.677,20.996],[71.206,20.796],[71,20.742],[70.92,20.742],[70.827,20.69],[70.448,20.848],[70.24,20.992],[69.981,21.227],[69.708,21.535],[69.371,21.83],[69.396,21.889],[69.217,21.957],[68.966,22.234],[69.006,22.44],[69.341,22.312],[69.754,22.418],[69.975,22.543],[70.125,22.553],[70.399,22.905],[70.497,22.933],[70.689,23.118],[70.312,23.215],[70.081,22.92],[69.648,22.796],[69.131,22.874],[68.633,23.17],[68.55,23.356],[68.4,23.42],[68.31,23.578],[68.142,23.602],[68.209,23.875],[68.339,23.966],[68.754,23.971],[68.764,24.296],[68.946,24.303],[69.194,24.237],[69.595,24.293],[69.732,24.171],[70.026,24.171],[70.11,24.294],[70.573,24.422],[70.572,24.252],[70.806,24.22],[70.986,24.366],[70.986,24.596],[71.112,24.675],[71.188,24.651],[71.287,24.616],[71.26,24.534],[71.297,24.564],[71.288,24.616],[71.378,24.626],[71.479,24.679],[71.608,24.677],[71.655,24.639],[71.657,24.64],[71.792,24.677],[71.81,24.656],[71.806,24.627],[71.851,24.61],[72.058,24.712],[72.09,24.659],[72.165,24.621],[72.195,24.623],[72.196,24.624],[72.285,24.629],[72.305,24.618],[72.32,24.618],[72.335,24.633],[72.347,24.629],[72.341,24.611],[72.336,24.599],[72.314,24.594],[72.276,24.607],[72.246,24.585],[72.354,24.564],[72.5,24.417],[72.52,24.5],[72.683,24.464],[72.725,24.367],[72.806,24.363],[72.816,24.365],[72.854,24.371],[72.875,24.363],[72.891,24.357],[72.911,24.337],[72.958,24.36],[72.959,24.361],[73.002,24.48],[73.151,24.355],[73.067,24.194],[73.214,24.077],[73.405,24.042],[73.378,23.904],[73.369,23.815],[73.656,23.621],[73.627,23.449],[73.959,23.38],[73.982,23.338],[74.248,23.184],[74.32,23.06],[74.465,22.817],[74.379,22.635],[74.058,22.55],[74.19,22.32],[74.095,22.017],[74.147,21.951],[73.939,21.874],[73.835,21.52],[73.982,21.522],[74.046,21.446],[73.815,21.174],[73.807,21.009],[73.849,20.999],[73.849,20.998],[73.889,20.933],[73.942,20.84],[73.838,20.621],[73.745,20.565],[73.474,20.72],[73.407,20.624],[73.468,20.496],[73.416,20.205],[73.249,20.122],[73.211,20.121],[73.043,20.326],[72.962,20.209],[72.775,20.132]],[[71.453,23.967],[71.688,23.97],[71.694,23.948],[71.688,23.971],[71.68,23.971],[71.442,23.981],[71.453,23.967]],[[71.698,23.93],[71.714,23.87],[71.715,23.87],[71.714,23.87],[71.717,23.928],[71.698,23.93]],[[71.812,23.854],[71.817,23.853],[71.815,23.855],[71.812,23.854]],[[71.858,23.847],[71.861,23.846],[71.861,23.847],[71.858,23.847]],[[71.931,23.947],[71.962,23.991],[72.206,24.114],[72.207,24.114],[72.224,24.131],[72.204,24.149],[72.177,24.118],[72.149,24.13],[72.157,24.094],[71.961,23.991],[71.925,24.009],[71.929,23.952],[71.931,23.947]],[[72.226,24.072],[72.269,24.059],[72.256,24.081],[72.226,24.072]],[[72.339,24.038],[72.339,24.037],[72.37,23.971],[72.486,23.936],[72.584,23.936],[72.37,23.972],[72.34,24.038],[72.339,24.038]],[[72.584,23.936],[72.651,23.993],[72.653,24.083],[72.652,24.084],[72.584,23.936]],[[72.707,24.092],[72.728,24.095],[72.714,24.098],[72.707,24.092]],[[72.783,24.102],[72.867,24.025],[72.924,24.04],[72.957,24.158],[72.958,24.16],[72.957,24.159],[72.923,24.041],[72.783,24.102]],[[72.992,24.215],[72.999,24.227],[72.992,24.223],[72.992,24.215]],[[73.027,24.274],[72.96,24.36],[72.967,24.313],[72.997,24.308],[73.001,24.289],[73.027,24.274]],[[71.309,24.12],[71.315,24.045],[71.322,24.052],[71.316,24.096],[71.334,24.116],[71.333,24.116],[71.309,24.12]]]},"properties":{"state":"Gujarat"}},
{"type":"Feature","geometry":{"type":"Polygon","coordinates":[[[86.859,21.214],[86.853,21.094],[86.977,20.86],[86.806,20.735],[87.056,20.715],[86.789,20.535],[86.777,20.335],[86.533,20.181],[86.37,19.982],[86.228,19.901],[85.679,19.745],[85.172,19.468],[84.812,19.157],[84.701,19.119],[84.423,18.949],[84.319,18.789],[84.09,18.758],[83.891,18.816],[83.793,19.018],[83.756,18.911],[83.663,19.099],[83.348,19.018],[83.412,18.874],[82.999,18.609],[83.077,18.404],[82.773,18.342],[82.606,18.367],[82.428,18.486],[82.314,18.185],[82.319,18.045],[82.031,18.07],[81.979,18.013],[81.617,17.824],[81.397,17.818],[81.482,17.977],[81.53,18.24],[81.911,18.57],[81.9,18.661],[82.091,18.738],[82.246,18.919],[82.206,19.121],[82.189,19.428],[82.028,19.508],[82.065,19.791],[81.869,19.902],[81.875,20.052],[82.018,20.049],[82.446,19.91],[82.594,19.776],[82.718,19.989],[82.398,20.056],[82.438,20.434],[82.339,20.874],[82.46,20.826],[82.639,21.089],[82.64,21.155],[82.966,21.175],[83.192,21.139],[83.269,21.377],[83.383,21.621],[83.487,21.644],[83.591,21.825],[83.538,22.045],[83.628,22.203],[83.802,22.294],[84.01,22.371],[84.012,22.528],[84.197,22.378],[84.429,22.352],[84.535,22.428],[84.75,22.419],[85.07,22.491],[85.029,22.122],[85.238,22.01],[85.397,22.164],[85.683,22.058],[85.897,21.984],[86.009,22.116],[86.029,22.334],[85.963,22.485],[86.067,22.557],[86.728,22.216],[86.838,22.098],[87.029,22.039],[87.101,21.864],[87.243,21.964],[87.283,21.803],[87.442,21.768],[87.485,21.615],[87.408,21.545],[87.148,21.509],[86.949,21.358],[86.859,21.214]]]},"properties":{"state":"Odisha"}},
{"type":"Feature","geometry":{"type":"Polygon","coordinates":[[[83.756,18.911],[83.793,19.018],[83.891,18.816],[84.09,18.758],[84.319,18.789],[84.423,18.949],[84.701,19.119],[84.764,19.075],[84.354,18.555],[84.128,18.313],[83.663,18.079],[83.519,17.95],[83.347,17.726],[83.162,17.56],[82.542,17.249],[82.319,17.058],[82.362,16.856],[82.314,16.559],[81.715,16.311],[81.553,16.347],[81.392,16.343],[81.213,16.208],[81.148,15.974],[81.008,15.755],[80.831,15.706],[80.68,15.885],[80.418,15.799],[80.251,15.634],[80.123,15.368],[80.04,15.009],[80.109,14.739],[80.196,14.586],[80.131,14.229],[80.146,14.042],[80.255,13.783],[80.268,13.565],[80.037,13.538],[79.946,13.364],[79.534,13.276],[79.284,13.123],[79.228,13.158],[79.163,13.02],[78.892,13.096],[78.621,12.991],[78.603,12.844],[78.412,12.627],[78.231,12.76],[78.253,12.861],[78.467,12.975],[78.586,13.276],[78.364,13.362],[78.401,13.588],[78.196,13.569],[78.126,13.787],[77.97,13.959],[77.782,13.819],[77.456,13.683],[77.433,13.844],[77.042,13.933],[76.948,14.095],[77.003,14.198],[77.028,14.062],[77.322,14.031],[77.364,14.275],[77.138,14.337],[77.005,14.235],[76.884,14.348],[76.901,14.49],[76.765,14.602],[76.867,14.97],[76.76,14.989],[76.8,15.096],[76.985,15.015],[77.156,15.14],[77.063,15.328],[77.026,15.837],[77.248,15.965],[77.514,15.928],[78.083,15.841],[78.248,15.972],[78.256,16.009],[78.601,16.084],[78.741,16.009],[78.923,16.123],[79.03,16.241],[79.215,16.226],[79.21,16.357],[79.258,16.566],[79.418,16.581],[79.68,16.693],[79.793,16.725],[79.949,16.636],[80.073,16.817],[80.056,16.971],[80.187,17.021],[80.322,16.879],[80.57,16.768],[80.602,16.919],[80.505,17.069],[80.877,17.07],[80.941,17.219],[81.174,17.231],[81.31,17.41],[81.021,17.52],[80.911,17.638],[80.886,17.736],[81.085,17.797],[81.166,17.858],[81.397,17.818],[81.617,17.824],[81.979,18.013],[82.031,18.07],[82.319,18.045],[82.314,18.185],[82.428,18.486],[82.606,18.367],[82.773,18.342],[83.077,18.404],[82.999,18.609],[83.412,18.874],[83.348,19.018],[83.663,19.099],[83.756,18.911]],[[82.186,16.737],[82.2,16.721],[82.239,16.717],[82.267,16.695],[82.27,16.722],[82.186,16.737]]]},"properties":{"state":"Andhra Pradesh"}},
{"type":"Feature","geometry":{"type":"Polygon","coordinates":[[[77.265,18.423],[77.551,18.292],[77.601,18.276],[77.563,18.196],[77.656,17.969],[77.453,17.694],[77.444,17.584],[77.686,17.511],[77.513,17.43],[77.38,17.223],[77.467,16.955],[77.459,16.885],[77.416,16.518],[77.288,16.409],[77.594,16.343],[77.5,16.222],[77.514,15.928],[77.248,15.965],[77.026,15.837],[77.063,15.328],[77.156,15.14],[76.985,15.015],[76.8,15.096],[76.76,14.989],[76.867,14.97],[76.765,14.602],[76.901,14.49],[76.884,14.348],[77.005,14.235],[77.138,14.337],[77.364,14.275],[77.322,14.031],[77.028,14.062],[77.003,14.198],[76.948,14.095],[77.042,13.933],[77.433,13.844],[77.456,13.683],[77.782,13.819],[77.97,13.959],[78.126,13.787],[78.196,13.569],[78.401,13.588],[78.364,13.362],[78.586,13.276],[78.467,12.975],[78.253,12.861],[78.231,12.76],[78.057,12.852],[77.866,12.87],[77.831,12.866],[77.739,12.672],[77.601,12.668],[77.615,12.367],[77.471,12.243],[77.747,12.155],[77.676,11.952],[77.494,11.944],[77.429,11.768],[77.293,11.809],[76.909,11.795],[76.848,11.595],[76.418,11.671],[76.413,11.758],[76.318,11.751],[76.113,11.979],[75.936,11.941],[75.577,12.157],[75.415,12.29],[75.416,12.499],[75.28,12.524],[75.112,12.681],[74.869,12.759],[74.777,13.071],[74.67,13.635],[74.583,13.926],[74.515,13.987],[74.395,14.418],[74.263,14.719],[74.118,14.785],[74.086,14.901],[74.297,15.041],[74.323,15.368],[74.251,15.492],[74.278,15.522],[74.118,15.651],[74.21,15.781],[74.346,15.764],[74.464,16.039],[74.48,16.249],[74.317,16.326],[74.315,16.555],[74.696,16.715],[75.089,16.952],[75.182,16.843],[75.341,16.956],[75.665,16.979],[75.604,17.305],[75.633,17.477],[75.932,17.323],[76.075,17.337],[76.383,17.315],[76.332,17.597],[76.429,17.643],[76.523,17.76],[76.685,17.682],[76.74,17.899],[76.919,17.916],[76.951,18.188],[77.065,18.151],[77.265,18.423]]]},"properties":{"state":"Karnataka"}},
{"type":"Feature","geometry":{"type":"Polygon","coordinates":[[[74.118,15.651],[74.278,15.522],[74.251,15.492],[74.323,15.368],[74.297,15.041],[74.086,14.901],[73.982,15.055],[73.884,15.354],[73.934,15.433],[73.766,15.495],[73.685,15.728],[73.939,15.742],[74.118,15.651]]]},"properties":{"state":"Goa"}},
{"type":"Feature","geometry":{"type":"Polygon","coordinates":[[[74.869,12.759],[75.112,12.681],[75.28,12.524],[75.416,12.499],[75.415,12.29],[75.577,12.157],[75.936,11.941],[76.113,11.979],[76.318,11.751],[76.413,11.758],[76.418,11.671],[76.234,11.527],[76.548,11.359],[76.442,11.201],[76.707,11.24],[76.754,11.079],[76.656,10.939],[76.907,10.782],[76.838,10.596],[76.834,10.339],[76.892,10.26],[77.051,10.262],[77.091,10.315],[77.288,10.232],[77.268,10.122],[77.167,9.612],[77.403,9.526],[77.34,9.42],[77.282,9.299],[77.204,9.07],[77.256,8.879],[77.199,8.771],[77.27,8.578],[77.098,8.292],[76.959,8.422],[76.682,8.776],[76.548,8.903],[76.479,9.123],[76.32,9.483],[76.28,9.789],[76.214,10.194],[75.958,10.686],[75.826,11.123],[75.698,11.425],[75.618,11.478],[75.554,11.702],[75.165,12.089],[74.869,12.759]],[[75.555,11.722],[75.542,11.739],[75.537,11.72],[75.555,11.722]]]},"properties":{"state":"Kerala"}},
{"type":"Feature","geometry":{"type":"Polygon","coordinates":[[[78.842,19.762],[78.936,19.55],[79.253,19.593],[79.472,19.501],[79.744,19.609],[79.806,19.579],[79.978,19.399],[79.929,19.158],[79.914,18.826],[80.118,18.68],[80.276,18.72],[80.372,18.611],[80.455,18.631],[80.706,18.439],[80.756,18.17],[80.979,18.166],[81.016,17.795],[81.085,17.797],[80.886,17.736],[80.911,17.638],[81.021,17.52],[81.31,17.41],[81.174,17.231],[80.941,17.219],[80.877,17.07],[80.505,17.069],[80.602,16.919],[80.57,16.768],[80.322,16.879],[80.187,17.021],[80.056,16.971],[80.073,16.817],[79.949,16.636],[79.793,16.725],[79.68,16.693],[79.418,16.581],[79.258,16.566],[79.21,16.357],[79.215,16.226],[79.03,16.241],[78.923,16.123],[78.741,16.009],[78.601,16.084],[78.256,16.009],[78.248,15.972],[78.083,15.841],[77.514,15.928],[77.5,16.222],[77.594,16.343],[77.288,16.409],[77.416,16.518],[77.459,16.885],[77.467,16.955],[77.38,17.223],[77.513,17.43],[77.686,17.511],[77.444,17.584],[77.453,17.694],[77.656,17.969],[77.563,18.196],[77.601,18.276],[77.551,18.292],[77.597,18.549],[77.739,18.556],[77.84,18.805],[77.949,18.844],[77.843,18.908],[77.797,19.073],[77.863,19.304],[78.193,19.317],[78.309,19.481],[78.276,19.692],[78.306,19.912],[78.432,19.814],[78.842,19.762]]]},"properties":{"state":"Telangana"}},
{"type":"Feature","geometry":{"type":"Polygon","coordinates":[[[89.055,22.128],[89.069,21.949],[88.633,21.955],[88.445,21.918],[88.267,21.728],[88.145,21.955],[88.208,22.026],[88.183,22.187],[88.082,22.261],[87.998,22.245],[88.186,22.105],[88.064,22.018],[87.956,21.831],[87.789,21.699],[87.485,21.615],[87.442,21.768],[87.283,21.803],[87.243,21.964],[87.101,21.864],[87.029,22.039],[86.838,22.098],[86.728,22.216],[86.845,22.4],[86.766,22.576],[86.559,22.714],[86.419,22.791],[86.436,22.927],[86.241,22.997],[86.044,23.145],[85.885,23.167],[85.859,23.43],[85.885,23.483],[86.039,23.499],[86.31,23.412],[86.486,23.636],[86.801,23.699],[86.801,23.834],[86.916,23.882],[87.085,23.812],[87.295,23.901],[87.234,24.025],[87.44,23.982],[87.631,24.164],[87.639,24.255],[87.801,24.382],[87.89,24.565],[87.839,24.745],[87.891,24.855],[87.954,24.974],[87.795,25.088],[87.711,25.258],[87.767,25.416],[87.96,25.539],[88.067,25.484],[87.893,25.866],[87.827,25.891],[87.85,26.039],[88.28,26.331],[88.24,26.458],[88.11,26.548],[88.186,26.772],[87.992,27.109],[88.038,27.22],[88.281,27.132],[88.425,27.071],[88.532,27.176],[88.722,27.139],[88.865,27.109],[88.868,26.966],[89.09,26.841],[89.375,26.854],[89.852,26.698],[89.835,26.414],[89.843,26.383],[89.729,26.171],[89.541,26.006],[89.349,26.01],[89.154,26.139],[89.096,26.391],[88.927,26.284],[88.76,26.329],[88.42,26.563],[88.401,26.644],[88.333,26.497],[88.485,26.461],[88.352,26.222],[88.179,26.149],[88.093,25.93],[88.446,25.595],[88.647,25.478],[88.812,25.524],[88.91,25.18],[88.436,25.2],[88.394,24.969],[88.174,24.861],[88.027,24.69],[88.133,24.51],[88.56,24.308],[88.742,24.255],[88.7,24.097],[88.732,23.911],[88.607,23.861],[88.593,23.617],[88.763,23.446],[88.709,23.232],[88.942,23.206],[88.858,22.968],[89.055,22.128]]]},"properties":{"state":"West Bengal"}},
{"type":"Feature","geometry":{"type":"MultiPolygon","coordinates":[[[[72.962,20.209],[73.043,20.326],[73.211,20.121],[72.962,20.209]]],[[[72.887,20.462],[72.829,20.368],[72.836,20.453],[72.887,20.462]]],[[[70.92,20.742],[71,20.742],[70.977,20.702],[70.92,20.742]]]]},"properties":{"state":"Dadra and Nagar Haveli and Daman and Diu"}},
{"type":"Feature","geometry":{"type":"MultiPolygon","coordinates":[[[[79.686,11.88],[79.84,11.956],[79.808,11.845],[79.686,11.88]]],[[[79.724,10.929],[79.748,10.996],[79.851,10.985],[79.849,10.827],[79.724,10.929]]],[[[75.555,11.722],[75.537,11.72],[75.542,11.739],[75.555,11.722]]],[[[82.186,16.737],[82.27,16.722],[82.267,16.695],[82.239,16.717],[82.2,16.721],[82.186,16.737]]]]},"properties":{"state":"Puducherry"}},
{"type":"Feature","geometry":{"type":"Polygon","coordinates":[[[73.054,8.273],[73.043,8.263],[73.018,8.276],[73.054,8.273]]]},"properties":{"state":"Lakshadweep"}},
{"type":"Feature","geometry":{"type":"Polygon","coordinates":[[[93.224,28.342],[93.182,28.433],[93.34,28.64],[93.962,28.713],[93.997,28.841],[94.187,29.039],[94.433,29.227],[94.679,29.327],[94.874,29.183],[95.253,29.109],[95.27,29.05],[95.455,29.035],[95.539,29.212],[96.089,29.459],[96.244,29.233],[96.15,29.05],[96.519,28.967],[96.585,28.717],[96.326,28.511],[96.314,28.383],[96.663,28.46],[96.78,28.364],[96.995,28.31],[97.089,28.362],[97.371,28.218],[97.253,27.9],[96.862,27.631],[96.962,27.401],[97.164,27.142],[97.063,27.092],[96.86,27.19],[96.797,27.346],[96.606,27.366],[96.306,27.294],[96.022,27.18],[95.946,27.051],[95.684,26.904],[95.496,26.817],[95.427,26.698],[95.234,26.682],[95.196,27.034],[95.369,27.11],[95.377,27.096],[95.484,27.242],[95.634,27.231],[95.857,27.271],[95.874,27.544],[95.774,27.733],[95.97,27.96],[95.606,27.955],[95.519,27.884],[95.514,27.88],[95.137,27.815],[94.852,27.727],[94.462,27.555],[94.213,27.606],[94.266,27.52],[94.219,27.505],[93.806,27.148],[93.698,26.995],[93.398,26.957],[93.061,26.922],[92.887,27],[92.656,27.008],[92.36,26.926],[92.113,26.893],[92.034,27.065],[92.071,27.276],[92.014,27.489],[91.655,27.483],[91.564,27.584],[91.63,27.801],[91.826,27.81],[91.881,27.722],[92.257,27.862],[92.468,27.815],[92.734,27.976],[92.662,28.067],[92.802,28.202],[93.224,28.342]]]},"properties":{"state":"Arunachal Pradesh"}},
{"type":"Feature","geometry":{"type":"Polygon","coordinates":[[[95.774,27.733],[95.874,27.544],[95.857,27.271],[95.634,27.231],[95.484,27.242],[95.377,27.096],[95.369,27.11],[95.196,27.034],[94.924,26.949],[94.791,26.797],[94.736,26.75],[94.586,26.725],[94.403,26.611],[94.314,26.461],[94.164,26.351],[94,26.172],[93.955,25.969],[93.776,25.969],[93.513,25.675],[93.329,25.543],[93.47,25.306],[93.381,25.24],[93.247,24.972],[93.175,24.798],[93.087,24.572],[93.009,24.413],[92.896,24.391],[92.762,24.513],[92.532,24.178],[92.422,24.25],[92.295,24.245],[92.214,24.509],[92.295,24.737],[92.516,24.88],[92.425,25.03],[92.54,25.099],[92.792,25.283],[92.569,25.466],[92.661,25.572],[92.444,25.72],[92.152,25.672],[92.164,25.97],[92.274,26.065],[92.173,26.076],[91.723,26.035],[91.58,26.034],[91.445,25.84],[91.335,25.841],[91.008,25.825],[91.026,25.886],[90.948,25.948],[90.632,25.919],[90.434,25.991],[90.122,25.959],[89.899,25.727],[90.02,25.607],[89.872,25.477],[89.843,25.882],[89.887,25.946],[89.729,26.171],[89.843,26.383],[89.835,26.414],[89.852,26.698],[90.194,26.773],[90.336,26.863],[90.418,26.905],[90.717,26.769],[90.951,26.777],[91.098,26.823],[91.337,26.78],[91.704,26.813],[91.893,26.919],[92.113,26.893],[92.36,26.926],[92.656,27.008],[92.887,27],[93.061,26.922],[93.398,26.957],[93.698,26.995],[93.806,27.148],[94.219,27.505],[94.266,27.52],[94.213,27.606],[94.462,27.555],[94.852,27.727],[95.137,27.815],[95.514,27.88],[95.519,27.884],[95.606,27.955],[95.97,27.96],[95.774,27.733]]]},"properties":{"state":"Assam"}},
{"type":"Feature","geometry":{"type":"Polygon","coordinates":[[[94.791,26.797],[94.924,26.949],[95.196,27.034],[95.234,26.682],[95.062,26.45],[95.123,26.348],[95.117,26.108],[95.014,25.891],[95.04,25.742],[94.883,25.587],[94.675,25.445],[94.488,25.605],[94.416,25.536],[94.19,25.548],[93.936,25.559],[93.805,25.463],[93.606,25.199],[93.47,25.306],[93.329,25.543],[93.513,25.675],[93.776,25.969],[93.955,25.969],[94,26.172],[94.164,26.351],[94.314,26.461],[94.403,26.611],[94.586,26.725],[94.736,26.75],[94.791,26.797]]]},"properties":{"state":"Nagaland"}},
{"type":"Feature","geometry":{"type":"Polygon","coordinates":[[[92.173,26.076],[92.274,26.065],[92.164,25.97],[92.152,25.672],[92.444,25.72],[92.661,25.572],[92.569,25.466],[92.792,25.283],[92.54,25.099],[92.425,25.03],[92.199,25.125],[92.017,25.189],[91.603,25.174],[91.355,25.233],[90.97,25.173],[90.511,25.169],[90.234,25.203],[89.974,25.299],[89.872,25.477],[90.02,25.607],[89.899,25.727],[90.122,25.959],[90.434,25.991],[90.632,25.919],[90.948,25.948],[91.026,25.886],[91.008,25.825],[91.335,25.841],[91.445,25.84],[91.58,26.034],[91.723,26.035],[92.173,26.076]]]},"properties":{"state":"Meghalaya"}},
{"type":"Feature","geometry":{"type":"Polygon","coordinates":[[[94.653,25.115],[94.744,25.037],[94.629,24.756],[94.375,24.494],[94.407,24.437],[94.253,24.114],[94.156,23.848],[94.017,23.927],[93.808,23.926],[93.74,24.006],[93.505,23.943],[93.378,24.088],[93.253,24.021],[93.207,24.047],[92.976,24.116],[93.009,24.413],[93.087,24.572],[93.175,24.798],[93.247,24.972],[93.381,25.24],[93.47,25.306],[93.606,25.199],[93.805,25.463],[93.936,25.559],[94.19,25.548],[94.416,25.536],[94.488,25.605],[94.675,25.445],[94.575,25.214],[94.653,25.115]]]},"properties":{"state":"Manipur"}},
{"type":"Feature","geometry":{"type":"Polygon","coordinates":[[[92.295,24.245],[92.324,23.914],[92.265,23.727],[92.176,23.707],[91.974,23.481],[91.804,23.515],[91.759,23.266],[91.806,23.063],[91.543,22.999],[91.454,23.261],[91.32,23.277],[91.161,23.595],[91.226,23.732],[91.3,23.998],[91.47,24.062],[91.756,24.142],[91.924,24.109],[91.971,24.382],[92.071,24.377],[92.214,24.509],[92.295,24.245]]]},"properties":{"state":"Tripura"}},
{"type":"Feature","geometry":{"type":"MultiPolygon","coordinates":[[[[92.873,12.331],[92.699,12.329],[92.745,12.723],[92.794,12.862],[92.841,13.391],[93.043,13.529],[93.034,13.082],[92.912,13.054],[92.974,12.543],[92.873,12.331]]],[[[92.52,10.898],[92.597,10.682],[92.433,10.551],[92.378,10.782],[92.52,10.898]]],[[[92.756,12.177],[92.707,11.974],[92.791,11.886],[92.751,11.61],[92.665,11.505],[92.551,11.72],[92.623,12.102],[92.756,12.177]]],[[[93.837,7.241],[93.915,6.949],[93.8,6.766],[93.646,7.127],[93.837,7.241]]]]},"properties":{"state":"Andaman and Nicobar Islands"}},
{"type":"Feature","geometry":{"type":"Polygon","coordinates":[[[79.423,28.897],[79.683,28.855],[79.82,28.888],[79.955,28.723],[80.065,28.837],[80.314,28.629],[80.553,28.691],[80.715,28.569],[81.053,28.405],[81.213,28.358],[81.32,28.197],[81.742,27.953],[81.885,27.856],[82.07,27.924],[82.207,27.844],[82.449,27.679],[82.665,27.723],[82.732,27.487],[83.189,27.454],[83.292,27.335],[83.395,27.48],[83.614,27.469],[83.862,27.335],[83.908,27.275],[84.05,27.044],[84.061,26.887],[84.259,26.805],[84.419,26.632],[84.113,26.63],[84.052,26.552],[84.157,26.376],[84.056,26.1],[84.472,25.882],[84.6,25.732],[84.319,25.668],[84.081,25.636],[83.931,25.558],[83.779,25.398],[83.538,25.309],[83.35,25.184],[83.395,24.781],[83.524,24.55],[83.503,24.525],[83.4,24.498],[83.409,24.267],[83.33,24.102],[83.207,23.922],[82.947,23.871],[82.813,23.962],[82.744,24.165],[82.798,24.576],[82.671,24.697],[82.524,24.677],[82.298,24.607],[82.216,24.794],[82.094,24.817],[81.943,24.846],[81.892,24.989],[81.668,25.062],[81.541,25.188],[81.264,25.053],[81.12,24.904],[80.946,24.967],[80.845,25.187],[80.715,25.066],[80.592,25.09],[80.478,24.976],[80.264,25.024],[80.43,25.174],[80.311,25.286],[80.105,25.35],[79.673,25.121],[79.28,25.324],[79.323,25.15],[79.131,25.11],[79.063,25.222],[78.88,25.158],[78.961,25.345],[78.731,25.458],[78.513,25.276],[78.559,25.213],[78.64,25.071],[78.632,24.957],[78.77,24.86],[78.985,24.442],[78.991,24.417],[78.806,24.179],[78.586,24.354],[78.369,24.374],[78.268,24.45],[78.276,24.663],[78.19,24.842],[78.374,25.099],[78.447,25.122],[78.39,25.206],[78.345,25.328],[78.452,25.572],[78.658,25.559],[78.886,25.913],[78.938,25.952],[78.994,26.197],[79.135,26.44],[79.007,26.671],[78.78,26.769],[78.545,26.764],[78.358,26.869],[78.222,26.832],[78.149,26.949],[77.987,26.889],[77.76,26.933],[77.455,26.743],[77.398,26.831],[77.661,26.971],[77.551,27.111],[77.646,27.242],[77.34,27.527],[77.283,27.799],[77.344,27.85],[77.53,27.927],[77.476,28.085],[77.5,28.206],[77.505,28.371],[77.348,28.52],[77.341,28.61],[77.222,28.831],[77.216,28.853],[77.143,29.167],[77.155,29.297],[77.132,29.484],[77.152,29.688],[77.227,29.939],[77.583,30.308],[77.58,30.379],[77.575,30.401],[77.959,30.242],[77.802,30.096],[77.716,29.886],[77.82,29.674],[78.02,29.582],[78.335,29.798],[78.511,29.725],[78.617,29.558],[78.926,29.439],[78.851,29.348],[78.761,29.264],[78.975,29.131],[79.036,29.169],[79.423,28.897]]]},"properties":{"state":"Uttar Pradesh"}},
{"type":"Feature","geometry":{"type":"Polygon","coordinates":[[[75.474,28.926],[75.561,28.613],[75.67,28.519],[75.893,28.39],[76.055,28.221],[75.933,27.928],[76.077,27.841],[76.225,27.833],[76.159,27.998],[76.312,28.178],[76.543,28.034],[76.854,28.221],[76.97,28.138],[76.942,27.843],[76.977,27.654],[77.045,27.821],[77.283,27.799],[77.34,27.527],[77.646,27.242],[77.551,27.111],[77.661,26.971],[77.398,26.831],[77.455,26.743],[77.76,26.933],[77.987,26.889],[78.149,26.949],[78.222,26.832],[78.089,26.676],[77.904,26.659],[77.539,26.412],[77.375,26.365],[77.12,26.214],[76.852,26.032],[76.788,25.944],[76.546,25.838],[76.516,25.528],[76.594,25.408],[76.945,25.284],[77.083,25.337],[77.367,25.411],[77.412,25.224],[77.312,25.081],[76.877,25.041],[77.069,24.557],[76.844,24.436],[76.922,24.212],[76.881,24.131],[76.321,24.245],[76.213,24.209],[76.118,24.194],[75.938,23.897],[75.69,23.747],[75.462,23.918],[75.522,24.025],[75.702,23.966],[75.837,24.057],[75.728,24.396],[75.921,24.543],[75.785,24.762],[75.549,24.703],[75.184,24.748],[75.352,25.019],[75.191,25.037],[75.116,24.877],[74.959,24.858],[74.993,24.693],[74.697,24.483],[74.855,24.424],[74.754,24.242],[74.908,24.212],[74.974,24.04],[74.941,23.765],[74.772,23.543],[74.572,23.42],[74.529,23.321],[74.734,23.221],[74.506,23.085],[74.32,23.06],[74.248,23.184],[73.982,23.338],[73.959,23.38],[73.627,23.449],[73.656,23.621],[73.369,23.815],[73.378,23.904],[73.405,24.042],[73.214,24.077],[73.067,24.194],[73.151,24.355],[73.002,24.48],[72.959,24.361],[72.958,24.36],[72.875,24.363],[72.854,24.371],[72.816,24.365],[72.728,24.367],[72.683,24.464],[72.353,24.564],[72.341,24.611],[72.347,24.629],[72.335,24.633],[72.285,24.629],[72.196,24.624],[72.165,24.622],[72.058,24.712],[71.919,24.673],[71.792,24.677],[71.657,24.64],[71.656,24.64],[71.609,24.677],[71.608,24.677],[71.479,24.679],[71.378,24.626],[71.288,24.616],[71.287,24.616],[71.188,24.651],[71.112,24.675],[70.937,24.939],[70.888,25.148],[70.665,25.397],[70.674,25.676],[70.269,25.713],[70.099,25.939],[70.14,26.156],[70.174,26.552],[69.887,26.579],[69.51,26.743],[69.514,27.01],[69.587,27.184],[70.026,27.562],[70.133,27.806],[70.371,28.012],[70.507,28.037],[70.677,27.921],[70.758,27.722],[70.907,27.709],[71.205,27.836],[71.881,27.914],[71.928,28.122],[72.206,28.394],[72.3,28.669],[72.404,28.783],[72.662,28.893],[72.945,29.028],[73.283,29.572],[73.398,29.946],[73.806,30.067],[73.968,30.194],[73.895,29.974],[74.298,29.954],[74.448,29.947],[74.526,29.941],[74.616,29.752],[74.603,29.365],[74.938,29.362],[75.081,29.228],[75.24,29.26],[75.346,29.283],[75.392,29.062],[75.528,28.971],[75.474,28.926]]]},"properties":{"state":"Rajasthan"}},
{"type":"Feature","geometry":{"type":"Polygon","coordinates":[[[77.341,28.61],[77.348,28.52],[77.175,28.405],[77.007,28.541],[76.884,28.503],[76.942,28.798],[77.216,28.853],[77.222,28.831],[77.341,28.61]]]},"properties":{"state":"Delhi"}},
{"type":"Feature","geometry":{"type":"Polygon","coordinates":[[[76.942,28.798],[76.884,28.503],[77.007,28.541],[77.175,28.405],[77.348,28.52],[77.505,28.371],[77.5,28.206],[77.476,28.085],[77.53,27.927],[77.344,27.85],[77.283,27.799],[77.045,27.821],[76.977,27.654],[76.942,27.843],[76.97,28.138],[76.854,28.221],[76.543,28.034],[76.312,28.178],[76.159,27.998],[76.225,27.833],[76.077,27.841],[75.933,27.928],[76.055,28.221],[75.893,28.39],[75.67,28.519],[75.561,28.613],[75.474,28.926],[75.528,28.971],[75.392,29.062],[75.346,29.283],[75.24,29.26],[75.081,29.228],[74.938,29.362],[74.603,29.365],[74.616,29.752],[74.526,29.941],[74.705,29.975],[74.812,29.993],[74.997,29.868],[75.191,29.844],[75.168,29.667],[75.303,29.56],[75.461,29.807],[75.58,29.74],[75.72,29.814],[75.947,29.729],[76.098,29.81],[76.214,29.84],[76.254,30.089],[76.467,30.099],[76.643,30.15],[76.562,30.242],[76.748,30.429],[76.907,30.459],[76.828,30.682],[76.838,30.754],[76.777,30.904],[76.916,30.9],[77.025,30.749],[77.123,30.563],[77.208,30.488],[77.58,30.379],[77.583,30.308],[77.227,29.939],[77.152,29.688],[77.132,29.484],[77.155,29.297],[77.143,29.167],[77.216,28.853],[76.942,28.798]]]},"properties":{"state":"Haryana"}},
{"type":"Feature","geometry":{"type":"Polygon","coordinates":[[[88.115,27.619],[88.205,27.942],[88.619,28.098],[88.844,27.993],[88.849,27.668],[88.794,27.417],[88.919,27.32],[88.722,27.139],[88.532,27.176],[88.425,27.071],[88.281,27.132],[88.038,27.22],[88.044,27.478],[88.115,27.619]]]},"properties":{"state":"Sikkim"}},
{"type":"Feature","geometry":{"type":"Polygon","coordinates":[[[84.419,26.632],[84.259,26.805],[84.061,26.887],[84.05,27.044],[83.908,27.275],[83.862,27.335],[84.097,27.517],[84.279,27.395],[84.62,27.34],[84.689,27.221],[84.642,27.048],[84.758,27.003],[85.192,26.869],[85.255,26.754],[85.544,26.838],[85.729,26.809],[85.816,26.6],[86.029,26.666],[86.543,26.538],[86.723,26.425],[87.043,26.56],[87.162,26.405],[87.463,26.44],[87.659,26.38],[87.848,26.436],[88.034,26.392],[88.11,26.548],[88.24,26.458],[88.28,26.331],[87.85,26.039],[87.827,25.891],[87.893,25.866],[88.067,25.484],[87.96,25.539],[87.767,25.416],[87.711,25.258],[87.552,25.331],[87.478,25.195],[87.327,25.224],[87.176,25.057],[87.052,24.627],[86.913,24.547],[86.611,24.608],[86.452,24.373],[86.133,24.604],[86.055,24.78],[85.902,24.766],[85.738,24.82],[85.677,24.591],[85.374,24.554],[85.331,24.51],[85.088,24.37],[84.802,24.531],[84.497,24.288],[84.327,24.49],[84.093,24.534],[84.009,24.642],[83.873,24.532],[83.503,24.525],[83.524,24.55],[83.395,24.781],[83.35,25.184],[83.538,25.309],[83.779,25.398],[83.931,25.558],[84.081,25.636],[84.319,25.668],[84.6,25.732],[84.472,25.882],[84.056,26.1],[84.157,26.376],[84.052,26.552],[84.113,26.63],[84.419,26.632]]]},"properties":{"state":"Bihar"}},
{"type":"Feature","geometry":{"type":"Polygon","coordinates":[[[87.552,25.331],[87.711,25.258],[87.795,25.088],[87.954,24.974],[87.891,24.855],[87.839,24.745],[87.89,24.565],[87.801,24.382],[87.639,24.255],[87.631,24.164],[87.44,23.982],[87.234,24.025],[87.295,23.901],[87.085,23.812],[86.916,23.882],[86.801,23.834],[86.801,23.699],[86.486,23.636],[86.31,23.412],[86.039,23.499],[85.885,23.483],[85.859,23.43],[85.885,23.167],[86.044,23.145],[86.241,22.997],[86.436,22.927],[86.419,22.791],[86.559,22.714],[86.766,22.576],[86.845,22.4],[86.728,22.216],[86.067,22.557],[85.963,22.485],[86.029,22.334],[86.009,22.116],[85.897,21.984],[85.683,22.058],[85.397,22.164],[85.238,22.01],[85.029,22.122],[85.07,22.491],[84.75,22.419],[84.535,22.428],[84.429,22.352],[84.197,22.378],[84.012,22.528],[84.293,22.773],[84.374,22.979],[84.178,22.98],[84.038,23.171],[84.074,23.334],[83.963,23.386],[84.016,23.635],[83.775,23.61],[83.706,23.82],[83.571,23.863],[83.432,24.086],[83.33,24.102],[83.409,24.267],[83.4,24.498],[83.503,24.525],[83.873,24.532],[84.009,24.642],[84.093,24.534],[84.327,24.49],[84.497,24.288],[84.802,24.531],[85.088,24.37],[85.331,24.51],[85.374,24.554],[85.677,24.591],[85.738,24.82],[85.902,24.766],[86.055,24.78],[86.133,24.604],[86.452,24.373],[86.611,24.608],[86.913,24.547],[87.052,24.627],[87.176,25.057],[87.327,25.224],[87.478,25.195],[87.552,25.331]]]},"properties":{"state":"Jharkhand"}},
{"type":"Feature","geometry":{"type":"Polygon","coordinates":[[[78.398,32.525],[78.387,32.757],[78.016,32.62],[77.741,32.969],[77.338,32.817],[77.274,32.874],[77.15,32.977],[76.933,33.028],[76.773,33.251],[76.502,33.516],[76.309,33.571],[76.265,33.742],[76.022,33.998],[75.864,33.978],[75.595,34.198],[75.497,34.234],[75.384,34.362],[75.375,34.388],[75.239,34.629],[74.733,34.671],[74.601,34.737],[74.32,34.787],[74.567,34.873],[74.486,35.11],[74.252,35.037],[74.147,35.097],[73.795,35.244],[73.7,35.357],[73.785,35.525],[73.407,35.563],[73.136,35.719],[73.089,35.882],[72.69,35.833],[72.534,35.917],[72.595,36.262],[72.778,36.31],[72.991,36.457],[73.125,36.687],[73.44,36.744],[73.7,36.684],[73.863,36.787],[74.055,36.806],[74.428,36.989],[74.708,37.077],[74.921,36.905],[75.343,37.052],[75.473,36.81],[75.615,36.761],[75.748,36.588],[76.351,36.359],[76.481,36.211],[76.643,36.183],[76.8,36.047],[76.722,35.952],[76.935,35.783],[77.43,35.654],[77.435,35.517],[77.612,35.468],[77.965,35.572],[78.137,35.539],[78.271,35.721],[78.52,35.763],[78.664,35.858],[78.959,35.892],[79.131,35.836],[79.215,35.979],[79.869,35.782],[79.998,35.837],[80.106,35.68],[80.29,35.607],[80.326,35.47],[80.181,35.166],[80.173,35.002],[80.068,34.714],[79.774,34.627],[79.793,34.484],[79.507,34.475],[79.591,34.282],[79.354,34.036],[79.02,34.051],[78.904,33.976],[79.106,33.617],[78.913,33.574],[78.988,33.334],[79.453,33.258],[79.375,33.085],[79.421,32.961],[79.626,32.74],[79.447,32.532],[79.319,32.593],[79.114,32.384],[78.981,32.338],[78.857,32.44],[78.761,32.654],[78.398,32.525]]]},"properties":{"state":"Ladakh"}},
{"type":"Feature","geometry":{"type":"Polygon","coordinates":[[[74.32,34.787],[74.601,34.737],[74.733,34.671],[75.239,34.629],[75.375,34.388],[75.384,34.362],[75.497,34.234],[75.595,34.198],[75.864,33.978],[76.022,33.998],[76.265,33.742],[76.309,33.571],[76.502,33.516],[76.773,33.251],[76.748,33.18],[76.41,33.186],[76.222,33.021],[75.954,32.873],[75.802,32.885],[75.924,32.748],[75.837,32.511],[75.513,32.308],[75.341,32.346],[75.205,32.418],[74.947,32.447],[74.889,32.521],[74.681,32.492],[74.659,32.788],[74.447,32.789],[74.382,32.757],[73.957,32.987],[73.688,33.087],[73.564,33.342],[73.598,33.713],[73.589,33.883],[73.488,34.145],[73.39,34.374],[73.447,34.574],[73.618,34.586],[73.749,34.787],[73.963,34.842],[74.147,35.097],[74.252,35.037],[74.486,35.11],[74.567,34.873],[74.32,34.787]]]},"properties":{"state":"Jammu and Kashmir"}},
{"type":"Feature","geometry":{"type":"Polygon","coordinates":[[[77.274,32.874],[77.338,32.817],[77.741,32.969],[78.016,32.62],[78.387,32.757],[78.398,32.525],[78.534,32.414],[78.482,32.279],[78.673,32.078],[78.782,31.993],[78.705,31.775],[78.846,31.608],[78.735,31.537],[78.75,31.366],[78.881,31.284],[78.809,31.199],[78.484,31.199],[78.311,31.284],[77.967,31.174],[77.829,31.029],[77.806,30.853],[77.704,30.764],[77.815,30.506],[77.575,30.401],[77.58,30.379],[77.208,30.488],[77.123,30.563],[77.025,30.749],[76.916,30.9],[76.777,30.904],[76.733,30.937],[76.624,30.999],[76.646,31.21],[76.392,31.413],[76.289,31.307],[76.201,31.303],[76.017,31.632],[75.961,31.857],[75.91,31.95],[75.598,32.082],[75.601,32.093],[75.638,32.252],[75.932,32.395],[75.837,32.511],[75.924,32.748],[75.802,32.885],[75.954,32.873],[76.222,33.021],[76.41,33.186],[76.748,33.18],[76.773,33.251],[76.933,33.028],[77.15,32.977],[77.274,32.874]]]},"properties":{"state":"Himachal Pradesh"}},
{"type":"Feature","geometry":{"type":"Polygon","coordinates":[[[75.601,32.093],[75.598,32.082],[75.91,31.95],[75.961,31.857],[76.017,31.632],[76.201,31.303],[76.289,31.307],[76.392,31.413],[76.646,31.21],[76.624,30.999],[76.733,30.937],[76.777,30.904],[76.838,30.754],[76.71,30.761],[76.739,30.693],[76.828,30.682],[76.907,30.459],[76.748,30.429],[76.562,30.242],[76.643,30.15],[76.467,30.099],[76.254,30.089],[76.214,29.84],[76.098,29.81],[75.947,29.729],[75.72,29.814],[75.58,29.74],[75.461,29.807],[75.303,29.56],[75.168,29.667],[75.191,29.844],[74.997,29.868],[74.812,29.993],[74.705,29.975],[74.526,29.941],[74.448,29.947],[74.298,29.954],[73.895,29.974],[73.968,30.194],[73.879,30.36],[74.216,30.691],[74.366,30.893],[74.708,31.072],[74.511,31.133],[74.612,31.5],[74.503,31.74],[74.667,31.923],[74.913,32.044],[75.175,32.067],[75.379,32.183],[75.341,32.346],[75.513,32.308],[75.837,32.511],[75.932,32.395],[75.638,32.252],[75.601,32.093]]]},"properties":{"state":"Punjab"}},
{"type":"Feature","geometry":{"type":"Polygon","coordinates":[[[78.311,31.284],[78.484,31.199],[78.809,31.199],[78.881,31.284],[79.072,31.456],[79.233,31.333],[79.407,31.073],[79.602,30.933],[79.732,30.979],[80.102,30.789],[80.25,30.745],[80.213,30.584],[80.608,30.471],[80.929,30.174],[80.554,29.85],[80.366,29.74],[80.409,29.596],[80.242,29.444],[80.319,29.301],[80.074,28.941],[80.065,28.837],[79.955,28.723],[79.82,28.888],[79.683,28.855],[79.423,28.897],[79.036,29.169],[78.975,29.131],[78.761,29.264],[78.851,29.348],[78.926,29.439],[78.617,29.558],[78.511,29.725],[78.335,29.798],[78.02,29.582],[77.82,29.674],[77.716,29.886],[77.802,30.096],[77.959,30.242],[77.575,30.401],[77.815,30.506],[77.704,30.764],[77.806,30.853],[77.829,31.029],[77.967,31.174],[78.311,31.284]]]},"properties":{"state":"Uttarakhand"}},
{"type":"Feature","geometry":{"type":"Polygon","coordinates":[[[76.828,30.682],[76.739,30.693],[76.71,30.761],[76.838,30.754],[76.828,30.682]]]},"properties":{"state":"Chandigarh"}}
]}